[{"OBJECT_NAME":"STARLINK-5940","OBJECT_ID":"2023-042AC","EPOCH":"2026-03-09T22:00:01.999584","MEAN_MOTION":15.10096632,"ECCENTRICITY":0.0001265,"INCLINATION":42.9997,"RA_OF_ASC_NODE":42.1442,"ARG_OF_PERICENTER":246.7627,"MEAN_ANOMALY":27.0311,"EPHEMERIS_TYPE":0,"CLASSIFICATION_TYPE":"U","NORAD_CAT_ID":56012,"ELEMENT_SET_NO":999,"REV_AT_EPOCH":577,"BSTAR":0.0035837787,"MEAN_MOTION_DOT":0.0005968,"MEAN_MOTION_DDOT":0},{"OBJECT_NAME":"PRSC-S1","OBJECT_ID":"2025-164A","EPOCH":"2026-03-09T14:34:55.095168","MEAN_MOTION":15.0891951,"ECCENTRICITY":0.0004466,"INCLINATION":41.129,"RA_OF_ASC_NODE":129.3637,"ARG_OF_PERICENTER":348.3012,"MEAN_ANOMALY":11.7698,"EPHEMERIS_TYPE":0,"CLASSIFICATION_TYPE":"U","NORAD_CAT_ID":65055,"ELEMENT_SET_NO":999,"REV_AT_EPOCH":3340,"BSTAR":0.00046631,"MEAN_MOTION_DOT":7.316e-5,"MEAN_MOTION_DDOT":0}]
